satname,norad_id,inclination_deg,eccentricity,mean_motion_rev_per_day,perigee_km,apogee_km,l1,l2
STARLINK-1008,44714,53.1503,0.0003731,15.5297892,405.5021097366689,410.5659505593658,1 44714U 19074B   26190.53454588  .00037908  00000+0  60232-3 0  9993,2 44714  53.1503 321.5050 0003731 300.7291  59.3352 15.52978920367686
STARLINK-1012,44718,53.1546,0.0004005,15.5342748,404.0102683116038,409.4449448614796,1 44718U 19074F   26190.84754609  .00090070  00000+0  13889-2 0  9992,2 44718  53.1546 320.2233 0004005 294.3587  65.7005 15.53427480367729
STARLINK-1017,44723,53.0473,0.0001469,15.33950945,463.03313634723145,465.04336743623753,1 44723U 19074L   26190.63188277  .00027606  00000+0  83688-3 0  9997,2 44723  53.0473 324.4732 0001469 105.5588 254.5575 15.33950945367622
STARLINK-1020,44725,53.1559,0.0003295,15.59223086,387.674285763238,392.1344250164411,1 44725U 19074N   26190.69246517  .00041566  00000+0  52376-3 0  9998,2 44725  53.1559 343.7601 0003295 253.7137 106.3514 15.59223086367369
STARLINK-1036,44741,53.0421,0.0002541,15.76804975,337.79286407397467,341.2067671036575,1 44741U 19074AE  26190.62050877  .00064800  00000+0  39548-3 0  9993,2 44741  53.0421 309.0083 0002541 357.6763   2.4244 15.76804975367834
STARLINK-1039,44744,53.0587,0.0002515,15.30864115,471.50973910854555,474.9559781474354,1 44744U 19074AH  26189.80865000  .00039466  00000+0  13103-2 0  9994,2 44744  53.0587  14.4036 0002515 153.5252 206.5877 15.30864115366854
STARLINK-1042,44747,53.0405,8.55e-05,15.55641203,399.7098161758022,400.86892708535015,1 44747U 19074AL  26189.52722674  .00018377  00000+0  26929-3 0  9994,2 44747  53.0405 232.4141 0000855  61.9577 298.1520 15.55641203368843
STARLINK-1043,44748,53.0474,0.0001374,15.6690368,366.84245981340337,368.6962348776542,1 44748U 19074AM  26190.83706946  .00040220  00000+0  37582-3 0  9994,2 44748  53.0474 320.3101 0001374 347.7580  12.3402 15.66903680367700
STARLINK-1046,44751,53.047,0.000369,15.59504403,386.59330513347686,391.5875189635681,1 44751U 19074AQ  26190.69535919  .00046292  00000+0  57598-3 0  9996,2 44751  53.0470 344.2402 0003690 204.6779 155.4056 15.59504403367350
STARLINK-1047,44752,53.0689,0.00013,15.35125861,459.65764959622265,461.4357073526253,1 44752U 19074AR  26190.53500468  .00010620  00000+0  31764-3 0  9994,2 44752  53.0689 295.6558 0001300 202.6391 157.4554 15.35125861368041
STARLINK-1048,44753,53.0428,0.0002323,15.70582872,355.66545600449354,358.79470755068724,1 44753U 19074AS  26188.34188489  .00046785  00000+0  37496-3 0  9995,2 44753  53.0428 303.2564 0002323 129.3226 230.7997 15.70582872367711
STARLINK-1063,44768,53.1545,0.0001883,15.53110875,406.37188448683537,408.9274117385148,1 44768U 19074BH  26190.80481176  .00057762  00000+0  90745-3 0  9997,2 44768  53.1545   1.2428 0001883 259.7352 100.3446 15.53110875367161
STARLINK-1067,44771,53.0416,0.0005389,15.83266996,317.5986274029128,324.8191824192254,1 44771U 19074BL  26190.85116345  .00104546  00000+0  47084-3 0  9990,2 44771  53.0416 320.0965 0005389 321.9268  38.1373 15.83266996367708
STARLINK-1068,44772,53.0396,0.000486,15.80867356,324.72742339977503,331.2457755384594,1 44772U 19074BM  26190.77044582  .00083942  00000+0  42449-3 0  9991,2 44772  53.0396 294.6268 0004860 332.0758  28.0001 15.80867356368046
STARLINK-1114,44927,53.0393,0.000156,15.73125577,348.92078057234176,351.019950070322,1 44927U 20001P   26190.83393875  .00052169  00000+0  37494-3 0  9995,2 44927  53.0393  93.3724 0001560 173.5923 186.5115 15.73125577359176
STARLINK-1123,44930,53.139,0.0007025,15.63122737,373.89650501021606,383.3897811112165,1 44930U 20001S   26190.79653080  .00075088  00000+0  80587-3 0  9997,2 44930  53.1390 122.9638 0007025  63.7620 296.4116 15.63122737358778
STARLINK-1094,44941,53.149,0.0006457,15.58549293,387.4834736903231,396.2262411750107,1 44941U 20001AD  26190.84384330  .00063521  00000+0  81484-3 0  9990,2 44941  53.1490  98.7837 0006457  88.9229 271.2524 15.58549293359122
STARLINK-1122,44949,53.1504,0.0005958,15.58364885,388.35504899847365,396.4228076946911,1 44949U 20001AM  26190.78716514  .00029708  00000+0  38889-3 0  9994,2 44949  53.1504  99.6322 0005958  81.1624 279.0063 15.58364885359108
STARLINK-1080,44961,53.044,0.0001962,15.70993161,354.73608540369605,357.3785832604881,1 44961U 20001AZ  26189.88897563  .00045503  00000+0  35869-3 0  9997,2 44961  53.0440  58.4590 0001962 142.7318 217.3835 15.70993161359588
STARLINK-1090,44968,53.1463,0.0005186,15.54533479,399.9921258148288,407.02604913675896,1 44968U 20001BG  26190.85556147  .00049520  00000+0  74030-3 0  9999,2 44968  53.1463  87.9256 0005186  92.8741 267.2864 15.54533479359270
STARLINK-1132,45044,53.1486,0.0002338,15.59691314,386.9677004941277,390.13180321929576,1 45044U 20006A   26189.82288544  .00039156  00000+0  48526-3 0  9993,2 45044  53.1486  32.7330 0002338 167.6700 192.4371 15.59691314355731
STARLINK-1131,45047,53.1535,0.0004183,15.56348485,395.4010238121782,401.0701371129935,1 45047U 20006D   26190.03451720  .00022483  00000+0  31930-3 0  9995,2 45047  53.1535  65.3433 0004183 116.0584 244.0859 15.56348485355294
STARLINK-1134,45048,53.0229,0.000617,15.62931738,375.0243364132575,383.36288238525594,1 45048U 20006E   26189.81802254  .00032025  00000+0  35151-3 0  9994,2 45048  53.0229  14.2733 0006170 190.0734 170.0157 15.62931738355966
STARLINK-1156,45054,53.1556,0.0004191,15.37835288,449.64912715942137,455.37457702724623,1 45054U 20006L   26189.89532564  .00030739  00000+0  82157-3 0  9991,2 45054  53.1556  75.6356 0004191 105.0394 255.1074 15.37835288355135
STARLINK-1166,45060,53.0432,3.49e-05,15.68656857,362.50687183229456,362.9773851954633,1 45060U 20006S   26190.80063580  .00043352  00000+0  37673-3 0  9996,2 45060  53.0432  42.0336 0000349 129.2553 230.8494 15.68656857355667
STARLINK-1169,45061,53.1532,0.0005146,15.41368755,438.55903044506886,445.5783861600539,1 45061U 20006T   26190.05412008  .00042672  00000+0  10105-2 0  9991,2 45061  53.1532  72.6964 0005146  79.4154 280.7431 15.41368755355190
STARLINK-1171,45062,53.0377,4.86e-05,15.79399561,331.8146707761698,332.466909777384,1 45062U 20006U   26189.78097353  .00079735  00000+0  43180-3 0  9992,2 45062  53.0377   9.8543 0000486   7.9286 352.1743 15.79399561356029
STARLINK-1133,45064,53.1554,0.0004304,15.37660664,450.0888556050486,455.9691232887644,1 45064U 20006W   26189.99754975  .00033582  00000+0  90133-3 0  9997,2 45064  53.1554  51.9481 0004304 105.5179 254.6300 15.37660664355480
STARLINK-1167,45071,53.1564,0.0002525,15.40335253,443.39621461291154,446.8419589367322,1 45071U 20006AD  26190.01311596  .00033557  00000+0  82556-3 0  9990,2 45071  53.1564  50.3618 0002525  79.2479 280.8811 15.40335253355505
STARLINK-1168,45072,53.1567,0.0003736,15.38196653,448.8904737409466,453.99353517307736,1 45072U 20006AE  26190.03590629  .00044097  00000+0  11584-2 0  9992,2 45072  53.1567  51.8939 0003736 101.2789 258.8635 15.38196653355488
STARLINK-1172,45074,53.1544,0.0002945,15.41403161,439.95869702207983,443.9757384063141,1 45074U 20006AG  26190.01501561  .00042977  00000+0  10167-2 0  9990,2 45074  53.1544  49.4597 0002945  76.5415 283.5919 15.41403161355512
STARLINK-1153,45080,53.1565,0.0004534,15.40324759,442.0563989210814,448.24375564276215,1 45080U 20006AN  26189.93012052  .00041039  00000+0  10066-2 0  9994,2 45080  53.1565  50.6639 0004534  59.2137 300.9314 15.40324759355492
STARLINK-1151,45081,53.0441,0.0009136,16.00001155,268.3377278232201,280.4932717508318,1 45081U 20006AP  26190.83335647  .00324496  55495-4  62057-3 0  9996,2 45081  53.0441 349.5372 0009136 305.6921 129.6504 16.00001155  6074
STARLINK-1185,45087,53.1574,0.0002912,15.4958499,415.96019826022166,419.918233048219,1 45087U 20006AV  26189.82951674  .00050193  00000+0  89592-3 0  9993,2 45087  53.1574  29.3075 0002912 125.6977 234.4303 15.49584990355789
STARLINK-1183,45088,53.1575,0.0003537,15.37543376,450.9600787214422,455.79269128999476,1 45088U 20006AW  26189.89382198  .00040133  00000+0  10784-2 0  9999,2 45088  53.1575  37.2678 0003537 123.9100 236.2241 15.37543376355670
STARLINK-1152,45096,53.0333,0.000303,15.52846476,406.36356463268476,410.4762181088554,1 45096U 20006BE  26189.71399698  .00069138  00000+0  10933-2 0  9994,2 45096  53.0333 349.4178 0003030 242.6955 117.3746 15.52846476356302
STARLINK-1184,45098,53.0505,0.000472,15.15699148,515.6014413804432,522.1122035488506,1 45098U 20006BG  26190.01044137  .00020923  00000+0  10983-2 0  9990,2 45098  53.0505  55.1562 0004720 126.8149 233.3278 15.15699148355408
STARLINK-1193,45100,53.0459,0.0003524,15.71403951,352.51094966538676,357.25638263088695,1 45100U 20006BJ  26190.73669404  .00051537  00000+0  39836-3 0  9997,2 45100  53.0459 352.0098 0003524  55.8854 304.2497 15.71403951356351
STARLINK-1143,45179,53.0274,0.0002832,16.06536619,254.48243113379522,258.24021098284175,1 45179U 20012B   26189.90782113  .00462173  11292-3  59893-3 0  9996,2 45179  53.0274  80.9405 0002832 188.5478 171.5506 16.06536619355091
STARLINK-1202,45183,53.1523,0.0004568,15.3730725,450.9549462003897,457.19685590679273,1 45183U 20012F   26190.03753735  .00027136  00000+0  73928-3 0  9997,2 45183  53.1523 193.3808 0004568  10.9390 349.1712 15.37307250353561
STARLINK-1216,45185,53.156,0.0004081,15.37770233,449.9168302918997,455.492163121512,1 45185U 20012H   26190.72424902  .00042067  00000+0  11212-2 0  9993,2 45185  53.1560 189.9311 0004081  13.3556 346.7555 15.37770233353614
STARLINK-1225,45187,53.1547,0.0004754,15.3775981,449.4879664357195,455.9827598786087,1 45187U 20012K   26190.72256911  .00024771  00000+0  66619-3 0  9992,2 45187  53.1547 190.3996 0004754  15.1438 344.9708 15.37759810353654
STARLINK-1230,45189,53.1531,0.0004844,15.37671,449.6893753687591,456.30737932233205,1 45189U 20012M   26190.73685071  .00017515  00000+0  47589-3 0  9991,2 45189  53.1531 190.4372 0004844  28.9131 331.2140 15.37671000350885
